ONEWEB-0716             
1 55177U 23004AP  24142.56925712  .00000035  00000+0  57243-4 0  9996
2 55177  87.9165 156.4820 0002000  95.4378 264.6981 13.17649857 67940
ONEWEB-0717             
1 55178U 23004AQ  24142.55184016  .00000046  00000+0  86434-4 0  9996
2 55178  87.9162 156.4507 0001888  59.9939 300.1380 13.17650256 67990
ONEWEB-0719             
1 55179U 23004AR  24142.56292631  .00000033  00000+0  51610-4 0  9995
2 55179  87.9163 156.4346 0001738  95.3250 264.8080 13.17650320 67947
ONEWEB-0530             
1 55796U 23029A   24142.28010560  .00000150  00000+0  33628-3 0  9993
2 55796  87.9222  65.0750 0001599  64.2414 295.8884 13.20775239 61237
ONEWEB-0534             
1 55797U 23029B   24142.34323429  .00000144  00000+0  32236-3 0  9999
2 55797  87.9222  65.0694 0001889  85.0977 275.0372 13.20774284 61244
ONEWEB-0556             
1 55798U 23029C   24142.34955346  .00000107  00000+0  23093-3 0  9999
2 55798  87.9222  65.0619 0001161  96.3224 263.8042 13.20774098 61247
ONEWEB-0562             
1 55799U 23029D   24142.33693050  .00000107  00000+0  23186-3 0  9993
2 55799  87.9224  65.0545 0000970  55.1143 305.0082 13.20773531 61242
ONEWEB-0563             
1 55800U 23029E   24142.33063457  .00000022  00000+0  21941-4 0  9992
2 55800  87.9223  65.0709 0001699  85.7533 274.3795 13.20773307 61236
